sat03122
1 03122U 67092D   20046.67031052 -.00000038  00000-0 -10684-3 0  9993
2 03122  89.0645 293.0687 0187776 145.5885 269.0805 13.25019675276575
